OBJECT_NAME,OBJECT_ID,EPOCH,MEAN_MOTION,ECCENTRICITY,INCLINATION,RA_OF_ASC_NODE,ARG_OF_PERICENTER,MEAN_ANOMALY,EPHEMERIS_TYPE,CLASSIFICATION_TYPE,NORAD_CAT_ID,ELEMENT_SET_NO,REV_AT_EPOCH,BSTAR,MEAN_MOTION_DOT,MEAN_MOTION_DDOT
SCD 1,1993-009B,2026-06-11T13:37:36.761376,14.46117050,.0042181,24.9685,242.2746,78.5920,305.7063,0,U,22490,999,76030,.47689E-4,.36E-5,0
TECHSAT 1B (GO-32),1998-043D,2026-06-11T14:03:01.522656,14.24427354,.0000734,99.0065,155.2028,176.4907,183.6276,0,U,25397,999,45053,.41012E-4,.48E-6,0
SCD 2,1998-060A,2026-06-11T03:39:16.092576,14.45523442,.00169327,24.9944,109.3743,60.0003,324.7192,0,U,25504,999,45945,.50104351E-4,.361E-5,0
DLR-TUBSAT,1999-029B,2026-06-11T13:48:46.719072,14.52425467,.0014412,98.6694,157.8950,12.1658,347.9882,0,U,25757,999,43243,.31892E-4,.82E-6,0
TERRA,1999-068A,2026-06-11T16:26:59.202816,14.61098743,.0001173,97.9458,212.4496,212.4483,258.7120,0,U,25994,999,40880,.75102E-4,.325E-5,0
MAROC-TUBSAT,2001-056D,2026-06-11T17:55:05.407968,13.70262256,.0020165,99.8079,339.5037,154.9043,274.8986,0,U,27004,999,22544,.40065E-4,-.11E-6,0
AQUA,2002-022A,2026-06-11T17:08:59.096832,14.62149926,.0001323,98.4275,131.8881,53.1553,358.2903,0,U,27424,999,28247,.14483E-3,.679E-5,0
SHIYAN-1 (SY-1),2004-012A,2026-06-11T12:10:40.001088,15.33617096,.0006063,97.8695,240.2070,51.0427,309.1354,0,U,28220,999,21022,.40292E-3,.13024E-3,0
AURA,2004-026A,2026-06-11T15:29:15.834624,14.61320797,.0001281,98.3416,119.0529,72.5453,287.5887,0,U,28376,999,16540,.14363E-3,.661E-5,0
IRS-P5 (CARTOSAT-1),2005-017A,2026-06-11T13:48:32.279040,14.91034548,.00026785,97.5309,185.8944,87.5570,272.5956,0,U,28649,999,14298,.11433928E-3,.1079E-4,0
SINAH 1,2005-043D,2026-06-11T15:43:42.602880,14.64154026,.001322,98.2853,296.9450,295.8226,64.1612,0,U,28893,999,9971,.60222E-4,.267E-5,0
RESURS-DK 1,2006-021A,2026-06-11T16:20:35.121120,15.13193083,.0006682,69.9338,353.8061,296.0141,64.0336,0,U,29228,999,10174,.13218E-3,.2244E-4,0
ARIRANG-2 (KOMPSAT-2),2006-031A,2026-06-11T15:04:50.990880,14.64656121,.00159374,97.8311,347.3444,90.6429,0.9235,0,U,29268,999,6066,.27710219E-4,.103E-5,0
LAPAN-TUBSAT,2007-001A,2026-06-11T17:34:58.481184,14.85942327,.0011464,98.1343,161.8336,197.8214,162.2600,0,U,29709,999,5034,-.1999E-5,-.75E-6,0
HAIYANG-1B,2007-010A,2026-06-11T13:13:42.676032,14.31025505,.0012676,98.3492,144.6150,213.8239,146.2137,0,U,31113,999,99982,.45317E-4,.78E-6,0
COSMO-SKYMED 1,2007-023A,2026-06-11T17:18:27.567360,14.97073642,.0000996,97.8848,354.5319,88.5169,271.6167,0,U,31598,999,2897,.18782E-3,.2105E-4,0
TERRASAR-X,2007-026A,2026-06-09T06:54:02.843424,15.19149435,.00016846,97.4448,168.1064,80.8129,279.3296,0,U,31698,999,5202,.23832718E-4,.433E-5,0
WORLDVIEW-1 (WV-1),2007-041A,2026-06-11T15:30:39.347136,15.24205668,.0002767,97.3865,282.4701,36.7309,323.4118,0,U,32060,999,4203,.2232E-3,.5369E-4,0
YAOGAN-3,2007-055A,2026-06-11T16:34:25.915008,14.90758217,.0001804,97.8158,192.6224,86.6218,273.5206,0,U,32289,999,505,.1876E-3,.1788E-4,0
COSMO-SKYMED 2,2007-059A,2026-06-11T16:37:28.111872,14.82150460,.0001383,97.8885,346.3705,85.7037,274.4334,0,U,32376,999,119,.53384E-4,.373E-5,0
RADARSAT-2,2007-061A,2026-06-11T17:16:50.206656,14.29982950,.0001319,98.5782,169.7306,82.7015,277.4317,0,U,32382,999,96517,-.40248E-4,-.147E-5,0
CARTOSAT-2A,2008-021A,2026-06-11T16:51:49.746240,14.79231986,.0012935,97.7639,211.5986,124.8651,235.3779,0,U,32783,999,97799,.15513E-3,.1104E-4,0
HUANJING 1A (HJ-1A),2008-041A,2026-06-11T16:54:43.108704,14.83971862,.0019511,97.6679,148.7546,152.0792,208.1474,0,U,33320,999,95759,.86737E-4,.672E-5,0
HUANJING 1B (HJ-1B),2008-041B,2026-06-11T17:43:44.804928,14.83309347,.0035551,97.6517,151.9760,199.0029,160.9862,0,U,33321,999,95760,.15507E-3,.1231E-4,0
GEOEYE 1,2008-042A,2026-06-11T16:29:05.168832,14.64720710,.0005539,98.1236,236.6877,82.6962,277.4870,0,U,33331,999,94934,.80616E-4,.382E-5,0
THEOS,2008-049A,2026-06-11T16:25:55.798176,14.20132882,.0001263,98.5576,220.1470,79.2516,280.8803,0,U,33396,999,91718,.58328E-4,.82E-6,0
COSMO-SKYMED 3,2008-054A,2026-06-11T18:21:06.009696,15.06914614,.0014411,97.8286,21.2462,287.2533,72.7117,0,U,33412,999,95612,.22851E-3,.3355E-4,0
YAOGAN-4,2008-061A,2026-06-11T16:51:43.199712,14.83189729,.0015781,97.9309,96.2535,88.6296,271.6725,0,U,33446,999,94485,.10973E-3,.844E-5,0
GOSAT (IBUKI),2009-002A,2026-06-11T13:08:17.302272,14.67539921,.0001611,98.0885,273.6993,87.9943,272.1446,0,U,33492,999,93063,.18396E-3,.995E-5,0
DEIMOS-1,2009-041A,2026-06-11T16:37:01.157664,14.75233344,.00013,97.7397,320.1589,137.8352,222.2958,0,U,35681,999,90607,.1236E-3,.788E-5,0
